{"type": "FeatureCollection", "features": [ {"type": "Feature", "properties": {"norad_id": 34409, "name": "COSMOS 2251 DEB", "group": "cosmos-2251-debris", "lat": -71.00829298227391, "lon": 156.39608629273326, "alt_km": 707.3680230554155, "timestamp": "2025-12-26T17:24:55.113840+00:00", "meta": {"OBJECT_NAME": "COSMOS 2251 DEB", "OBJECT_ID": "1993-036RA", "EPOCH": "2025-12-26T05:23:03.457248", "MEAN_MOTION": 14.58059814, "ECCENTRICITY": 0.00804494, "INCLINATION": 74.0637, "RA_OF_ASC_NODE": 281.2271, "ARG_OF_PERICENTER": 352.0612, "MEAN_ANOMALY": 158.1753, "EPHEMERIS_TYPE": 0, "CLASSIFICATION_TYPE": "U", "NORAD_CAT_ID": 34409, "ELEMENT_SET_NO": 999, "REV_AT_EPOCH": 89389, "BSTAR": 0.00026769623, "MEAN_MOTION_DOT": 1.256e-05, "MEAN_MOTION_DDOT": 0}, "tle": {"line1": "1 34409U 93036RA  25360.22434557  .00001256  00000+0  26770-3 0  9997", "line2": "2 34409  74.0637 281.2271 0080449 352.0612 158.1753 14.58059814893898"}}, "geometry": {"type": "Point", "coordinates": [156.39608629273326, -71.00829298227391]}}, {"type": "Feature", "properties": {"norad_id": 34410, "name": "COSMOS 2251 DEB", "group": "cosmos-2251-debris", "lat": 24.29390637941095, "lon": 44.33728588464675, "alt_km": 502.7033836096416, "timestamp": "2025-12-26T17:24:55.113850+00:00", "meta": {"OBJECT_NAME": "COSMOS 2251 DEB", "OBJECT_ID": "1993-036RB", "EPOCH": "2025-12-25T20:46:45.679008", "MEAN_MOTION": 15.20131672, "ECCENTRICITY": 0.0021099, "INCLINATION": 73.7359, "RA_OF_ASC_NODE": 233.7447, "ARG_OF_PERICENTER": 72.7223, "MEAN_ANOMALY": 58.0348, "EPHEMERIS_TYPE": 0, "CLASSIFICATION_TYPE": "U", "NORAD_CAT_ID": 34410, "ELEMENT_SET_NO": 999, "REV_AT_EPOCH": 89973, "BSTAR": 0.0019325, "MEAN_MOTION_DOT": 0.00042248, "MEAN_MOTION_DDOT": 0}, "tle": {"line1": "1 34410U 93036RB  25359.86580647  .00042248  00000+0  19325-2 0  9992", "line2": "2 34410  73.7359 233.7447 0021099  72.7223  58.0348 15.20131672899734"}}, "geometry": {"type": "Point", "coordinates": [44.33728588464675, 24.29390637941095]}}, {"type": "Feature", "properties": {"norad_id": 34412, "name": "COSMOS 2251 DEB", "group": "cosmos-2251-debris", "lat": -68.95557712549174, "lon": -110.13658253669384, "alt_km": 776.6017563947826, "timestamp": "2025-12-26T17:24:55.113860+00:00", "meta": {"OBJECT_NAME": "COSMOS 2251 DEB", "OBJECT_ID": "1993-036RD", "EPOCH": "2025-12-26T06:09:00.171072", "MEAN_MOTION": 14.47312096, "ECCENTRICITY": 0.0187713, "INCLINATION": 73.9486, "RA_OF_ASC_NODE": 299.1878, "ARG_OF_PERICENTER": 31.1517, "MEAN_ANOMALY": 330.0606, "EPHEMERIS_TYPE": 0, "CLASSIFICATION_TYPE": "U", "NORAD_CAT_ID": 34412, "ELEMENT_SET_NO": 999, "REV_AT_EPOCH": 87846, "BSTAR": 0.0018061614, "MEAN_MOTION_DOT": 8.23e-05, "MEAN_MOTION_DDOT": 0}, "tle": {"line1": "1 34412U 93036RD  25360.25625198  .00008230  00000+0  18062-2 0  9990", "line2": "2 34412  73.9486 299.1878 0187713  31.1517 330.0606 14.47312096878460"}}, "geometry": {"type": "Point", "coordinates": [-110.13658253669384, -68.95557712549174]}}, {"type": "Feature", "properties": {"norad_id": 34413, "name": "COSMOS 2251 DEB", "group": "cosmos-2251-debris", "lat": -45.30816890799486, "lon": 76.30226400295463, "alt_km": 795.2894910119367, "timestamp": "2025-12-26T17:24:55.113870+00:00", "meta": {"OBJECT_NAME": "COSMOS 2251 DEB", "OBJECT_ID": "1993-036RE", "EPOCH": "2025-12-24T22:25:10.363872", "MEAN_MOTION": 14.291856, "ECCENTRICITY": 0.0090951, "INCLINATION": 74.0301, "RA_OF_ASC_NODE": 242.7297, "ARG_OF_PERICENTER": 316.973, "MEAN_ANOMALY": 57.9695, "EPHEMERIS_TYPE": 0, "CLASSIFICATION_TYPE": "U", "NORAD_CAT_ID": 34413, "ELEMENT_SET_NO": 999, "REV_AT_EPOCH": 87305, "BSTAR": 0.0013959, "MEAN_MOTION_DOT": 3.681e-05, "MEAN_MOTION_DDOT": 0}, "tle": {"line1": "1 34413U 93036RE  25358.93414773  .00003681  00000+0  13959-2 0  9993", "line2": "2 34413  74.0301 242.7297 0090951 316.9730  57.9695 14.29185600873058"}}, "geometry": {"type": "Point", "coordinates": [76.30226400295463, -45.30816890799486]}}, {"type": "Feature", "properties": {"norad_id": 34420, "name": "COSMOS 2251 DEB", "group": "cosmos-2251-debris", "lat": 46.755367655726516, "lon": -120.81511719130252, "alt_km": 628.5658139482812, "timestamp": "2025-12-26T17:24:55.113880+00:00", "meta": {"OBJECT_NAME": "COSMOS 2251 DEB", "OBJECT_ID": "1993-036RM", "EPOCH": "2025-12-25T01:53:27.691872", "MEAN_MOTION": 14.68332611, "ECCENTRICITY": 0.01060549, "INCLINATION": 74.0333, "RA_OF_ASC_NODE": 80.0919, "ARG_OF_PERICENTER": 198.2983, "MEAN_ANOMALY": 231.8315, "EPHEMERIS_TYPE": 0, "CLASSIFICATION_TYPE": "U", "NORAD_CAT_ID": 34420, "ELEMENT_SET_NO": 999, "REV_AT_EPOCH": 89951, "BSTAR": 0.00021975448, "MEAN_MOTION_DOT": 1.346e-05, "MEAN_MOTION_DDOT": 0}, "tle": {"line1": "1 34420U 93036RM  25359.07879273  .00001346  00000+0  21975-3 0  9991", "line2": "2 34420  74.0333  80.0919 0106054 198.2983 231.8315 14.68332611899518"}}, "geometry": {"type": "Point", "coordinates": [-120.81511719130252, 46.755367655726516]}}, {"type": "Feature", "properties": {"norad_id": 34425, "name": "COSMOS 2251 DEB", "group": "cosmos-2251-debris", "lat": -74.00900019001729, "lon": -62.44646028791333, "alt_km": 701.4542849405698, "timestamp": "2025-12-26T17:24:55.113890+00:00", "meta": {"OBJECT_NAME": "COSMOS 2251 DEB", "OBJECT_ID": "1993-036RS", "EPOCH": "2025-12-26T03:02:59.608320", "MEAN_MOTION": 14.62197584, "ECCENTRICITY": 0.00240677, "INCLINATION": 74.0191, "RA_OF_ASC_NODE": 28.8548, "ARG_OF_PERICENTER": 151.4637, "MEAN_ANOMALY": 208.7853, "EPHEMERIS_TYPE": 0, "CLASSIFICATION_TYPE": "U", "NORAD_CAT_ID": 34425, "ELEMENT_SET_NO": 999, "REV_AT_EPOCH": 88936, "BSTAR": 0.00050597394, "MEAN_MOTION_DOT": 2.529e-05, "MEAN_MOTION_DDOT": 0}, "tle": {"line1": "1 34425U 93036RS  25360.12707880  .00002529  00000+0  50597-3 0  9994", "line2": "2 34425  74.0191  28.8548 0024067 151.4637 208.7853 14.62197584889367"}}, "geometry": {"type": "Point", "coordinates": [-62.44646028791333, -74.00900019001729]}}, {"type": "Feature", "properties": {"norad_id": 34429, "name": "COSMOS 2251 DEB", "group": "cosmos-2251-debris", "lat": 28.25018187428399, "lon": -51.43083053336444, "alt_km": 430.3681957369754, "timestamp": "2025-12-26T17:24:55.113900+00:00", "meta": {"OBJECT_NAME": "COSMOS 2251 DEB", "OBJECT_ID": "1993-036RW", "EPOCH": "2025-12-25T19:41:46.493664", "MEAN_MOTION": 15.47531411, "ECCENTRICITY": 0.00141306, "INCLINATION": 73.9684, "RA_OF_ASC_NODE": 139.4433, "ARG_OF_PERICENTER": 342.6607, "MEAN_ANOMALY": 167.4573, "EPHEMERIS_TYPE": 0, "CLASSIFICATION_TYPE": "U", "NORAD_CAT_ID": 34429, "ELEMENT_SET_NO": 999, "REV_AT_EPOCH": 89650, "BSTAR": 0.0054719201, "MEAN_MOTION_DOT": 0.00293252, "MEAN_MOTION_DDOT": 0}, "tle": {"line1": "1 34429U 93036RW  25359.82067701  .00293252  00000+0  54719-2 0  9998", "line2": "2 34429  73.9684 139.4433 0014130 342.6607 167.4573 15.47531411896508"}}, "geometry": {"type": "Point", "coordinates": [-51.43083053336444, 28.25018187428399]}}, {"type": "Feature", "properties": {"norad_id": 34430, "name": "COSMOS 2251 DEB", "group": "cosmos-2251-debris", "lat": -1.1569251323370489, "lon": -82.77329475412303, "alt_km": 720.2992392511132, "timestamp": "2025-12-26T17:24:55.113910+00:00", "meta": {"OBJECT_NAME": "COSMOS 2251 DEB", "OBJECT_ID": "1993-036RX", "EPOCH": "2025-12-26T02:24:41.068512", "MEAN_MOTION": 14.39671247, "ECCENTRICITY": 0.0060938, "INCLINATION": 74.0518, "RA_OF_ASC_NODE": 278.7106, "ARG_OF_PERICENTER": 345.2643, "MEAN_ANOMALY": 14.6732, "EPHEMERIS_TYPE": 0, "CLASSIFICATION_TYPE": "U", "NORAD_CAT_ID": 34430, "ELEMENT_SET_NO": 999, "REV_AT_EPOCH": 88147, "BSTAR": 0.00044224891, "MEAN_MOTION_DOT": 1.387e-05, "MEAN_MOTION_DDOT": 0}, "tle": {"line1": "1 34430U 93036RX  25360.10047533  .00001387  00000+0  44225-3 0  9992", "line2": "2 34430  74.0518 278.7106 0060938 345.2643  14.6732 14.39671247881470"}}, "geometry": {"type": "Point", "coordinates": [-82.77329475412303, -1.1569251323370489]}}, {"type": "Feature", "properties": {"norad_id": 34431, "name": "COSMOS 2251 DEB", "group": "cosmos-2251-debris", "lat": 67.38394930301767, "lon": -166.84948674774137, "alt_km": 762.8591188759247, "timestamp": "2025-12-26T17:24:55.113920+00:00", "meta": {"OBJECT_NAME": "COSMOS 2251 DEB", "OBJECT_ID": "1993-036RY", "EPOCH": "2025-12-25T20:54:23.497920", "MEAN_MOTION": 14.2881916, "ECCENTRICITY": 0.0067658, "INCLINATION": 74.0741, "RA_OF_ASC_NODE": 151.4299, "ARG_OF_PERICENTER": 133.6134, "MEAN_ANOMALY": 227.0657, "EPHEMERIS_TYPE": 0, "CLASSIFICATION_TYPE": "U", "NORAD_CAT_ID": 34431, "ELEMENT_SET_NO": 999, "REV_AT_EPOCH": 87330, "BSTAR": 0.00072363, "MEAN_MOTION_DOT": 1.845e-05, "MEAN_MOTION_DDOT": 0}, "tle": {"line1": "1 34431U 93036RY  25359.87110530  .00001845  00000+0  72363-3 0  9996", "line2": "2 34431  74.0741 151.4299 0067658 133.6134 227.0657 14.28819160873304"}}, "geometry": {"type": "Point", "coordinates": [-166.84948674774137, 67.38394930301767]}}, {"type": "Feature", "properties": {"norad_id": 34432, "name": "COSMOS 2251 DEB", "group": "cosmos-2251-debris", "lat": -39.905762709471276, "lon": -88.27211665505673, "alt_km": 829.4046204887818, "timestamp": "2025-12-26T17:24:55.113930+00:00", "meta": {"OBJECT_NAME": "COSMOS 2251 DEB", "OBJECT_ID": "1993-036RZ", "EPOCH": "2025-12-26T06:22:48.525024", "MEAN_MOTION": 14.0296163, "ECCENTRICITY": 0.01812166, "INCLINATION": 73.8285, "RA_OF_ASC_NODE": 78.4936, "ARG_OF_PERICENTER": 159.0356, "MEAN_ANOMALY": 259.5401, "EPHEMERIS_TYPE": 0, "CLASSIFICATION_TYPE": "U", "NORAD_CAT_ID": 34432, "ELEMENT_SET_NO": 999, "REV_AT_EPOCH": 85874, "BSTAR": 0.0011246013, "MEAN_MOTION_DOT": 1.992e-05, "MEAN_MOTION_DDOT": 0}, "tle": {"line1": "1 34432U 93036RZ  25360.26583941  .00001992  00000+0  11246-2 0  9997", "line2": "2 34432  73.8285  78.4936 0181216 159.0356 259.5401 14.02961630858746"}}, "geometry": {"type": "Point", "coordinates": [-88.27211665505673, -39.905762709471276]}}]}